[{"OBJECT_NAME":"CUBESX-HSE 3 (RS42S)","OBJECT_ID":"2023-091N","EPOCH":"2026-03-09T22:57:25.321248","MEAN_MOTION":15.286147,"ECCENTRICITY":0.00127191,"INCLINATION":97.5203,"RA_OF_ASC_NODE":133.4295,"ARG_OF_PERICENTER":86.5376,"MEAN_ANOMALY":273.7318,"EPHEMERIS_TYPE":0,"CLASSIFICATION_TYPE":"U","NORAD_CAT_ID":57178,"ELEMENT_SET_NO":999,"REV_AT_EPOCH":14925,"BSTAR":0.00059055694,"MEAN_MOTION_DOT":0.00016417,"MEAN_MOTION_DDOT":0},{"OBJECT_NAME":"STARLINK-34279","OBJECT_ID":"2025-127V","EPOCH":"2026-03-09T09:01:01.689600","MEAN_MOTION":15.27578353,"ECCENTRICITY":0.00010928,"INCLINATION":43.0024,"RA_OF_ASC_NODE":182.0264,"ARG_OF_PERICENTER":240.6814,"MEAN_ANOMALY":119.3928,"EPHEMERIS_TYPE":0,"CLASSIFICATION_TYPE":"U","NORAD_CAT_ID":64389,"ELEMENT_SET_NO":999,"REV_AT_EPOCH":4241,"BSTAR":0.0009842521,"MEAN_MOTION_DOT":0.0002692,"MEAN_MOTION_DDOT":0}]
